{
  "links" : {
    "next" : "https://api.nasa.gov/neo/rest/v1/feed?start_date=2003-01-23&end_date=2003-01-23&detailed=true&api_key=t0TVs3DtDT2H8Oy2Zy8m2eVrNsAVKAexjcZXUckd",
    "prev" : "https://api.nasa.gov/neo/rest/v1/feed?start_date=2003-01-21&end_date=2003-01-21&detailed=true&api_key=t0TVs3DtDT2H8Oy2Zy8m2eVrNsAVKAexjcZXUckd",
    "self" : "https://api.nasa.gov/neo/rest/v1/feed?start_date=2003-01-22&end_date=2003-01-22&detailed=true&api_key=t0TVs3DtDT2H8Oy2Zy8m2eVrNsAVKAexjcZXUckd"
  },
  "element_count" : 6,
  "near_earth_objects" : {
    "2003-01-22" : [ {
      "links" : {
        "self" : "https://api.nasa.gov/neo/rest/v1/neo/2250458?api_key=t0TVs3DtDT2H8Oy2Zy8m2eVrNsAVKAexjcZXUckd"
      },
      "neo_reference_id" : "2250458",
      "name" : "250458 (2004 BO41)",
      "nasa_jpl_url" : "http://ssd.jpl.nasa.gov/sbdb.cgi?sstr=2250458",
      "absolute_magnitude_h" : 18.0,
      "estimated_diameter" : {
        "kilometers" : {
          "estimated_diameter_min" : 0.6676594135,
          "estimated_diameter_max" : 1.4929318344
        },
        "meters" : {
          "estimated_diameter_min" : 667.6594134952,
          "estimated_diameter_max" : 1492.931834393
        },
        "miles" : {
          "estimated_diameter_min" : 0.4148641974,
          "estimated_diameter_max" : 0.9276645469
        },
        "feet" : {
          "estimated_diameter_min" : 2190.4837101717,
          "estimated_diameter_max" : 4898.07047955
        }
      },
      "is_potentially_hazardous_asteroid" : false,
      "close_approach_data" : [ {
        "close_approach_date" : "2003-01-22",
        "epoch_date_close_approach" : 1043222400000,
        "relative_velocity" : {
          "kilometers_per_second" : "31.8984817535",
          "kilometers_per_hour" : "114834.5343126569",
          "miles_per_hour" : "71353.7138344395"
        },
        "miss_distance" : {
          "astronomical" : "0.4005420137",
          "lunar" : "155.8108520508",
          "kilometers" : "59920232",
          "miles" : "37232708"
        },
        "orbiting_body" : "Earth"
      } ],
      "orbital_data" : {
        "orbit_id" : "102",
        "orbit_determination_date" : "2017-09-27 06:52:17",
        "orbit_uncertainty" : "0",
        "minimum_orbit_intersection" : ".0888206",
        "jupiter_tisserand_invariant" : "5.735",
        "epoch_osculation" : "2458000.5",
        "eccentricity" : ".4928912402118253",
        "semi_major_axis" : "1.018550412349483",
        "inclination" : "35.55663293109077",
        "ascending_node_longitude" : "337.7784743606296",
        "orbital_period" : "375.4673869951035",
        "perihelion_distance" : ".5165158363882801",
        "perihelion_argument" : "254.4065266425643",
        "aphelion_distance" : "1.520584988310685",
        "perihelion_time" : "2457959.291116769922",
        "mean_anomaly" : "39.51128240872099",
        "mean_motion" : ".9588049787256084",
        "equinox" : "J2000"
      }
    }, {
      "links" : {
        "self" : "https://api.nasa.gov/neo/rest/v1/neo/3423027?api_key=t0TVs3DtDT2H8Oy2Zy8m2eVrNsAVKAexjcZXUckd"
      },
      "neo_reference_id" : "3423027",
      "name" : "(2008 PG2)",
      "nasa_jpl_url" : "http://ssd.jpl.nasa.gov/sbdb.cgi?sstr=3423027",
      "absolute_magnitude_h" : 22.6,
      "estimated_diameter" : {
        "kilometers" : {
          "estimated_diameter_min" : 0.0802703167,
          "estimated_diameter_max" : 0.1794898848
        },
        "meters" : {
          "estimated_diameter_min" : 80.2703167283,
          "estimated_diameter_max" : 179.4898847799
        },
        "miles" : {
          "estimated_diameter_min" : 0.049877647,
          "estimated_diameter_max" : 0.1115298092
        },
        "feet" : {
          "estimated_diameter_min" : 263.3540659348,
          "estimated_diameter_max" : 588.8775935812
        }
      },
      "is_potentially_hazardous_asteroid" : false,
      "close_approach_data" : [ {
        "close_approach_date" : "2003-01-22",
        "epoch_date_close_approach" : 1043222400000,
        "relative_velocity" : {
          "kilometers_per_second" : "4.9623999607",
          "kilometers_per_hour" : "17864.639858559",
          "miles_per_hour" : "11100.3924721141"
        },
        "miss_distance" : {
          "astronomical" : "0.1656489024",
          "lunar" : "64.4374237061",
          "kilometers" : "24780724",
          "miles" : "15398028"
        },
        "orbiting_body" : "Earth"
      } ],
      "orbital_data" : {
        "orbit_id" : "17",
        "orbit_determination_date" : "2017-04-06 09:03:08",
        "orbit_uncertainty" : "2",
        "minimum_orbit_intersection" : ".104347",
        "jupiter_tisserand_invariant" : "5.493",
        "epoch_osculation" : "2458000.5",
        "eccentricity" : ".04236842096326811",
        "semi_major_axis" : "1.138612059521745",
        "inclination" : "8.954255456478924",
        "ascending_node_longitude" : "325.0808144296324",
        "orbital_period" : "443.7742470610794",
        "perihelion_distance" : "1.090370864470074",
        "perihelion_argument" : "67.2923621542384",
        "aphelion_distance" : "1.186853254573416",
        "perihelion_time" : "2457883.394936968986",
        "mean_anomaly" : "94.99835326262728",
        "mean_motion" : ".8112232793681039",
        "equinox" : "J2000"
      }
    }, {
      "links" : {
        "self" : "https://api.nasa.gov/neo/rest/v1/neo/3448069?api_key=t0TVs3DtDT2H8Oy2Zy8m2eVrNsAVKAexjcZXUckd"
      },
      "neo_reference_id" : "3448069",
      "name" : "(2009 DT10)",
      "nasa_jpl_url" : "http://ssd.jpl.nasa.gov/sbdb.cgi?sstr=3448069",
      "absolute_magnitude_h" : 22.8,
      "estimated_diameter" : {
        "kilometers" : {
          "estimated_diameter_min" : 0.0732073989,
          "estimated_diameter_max" : 0.1636967205
        },
        "meters" : {
          "estimated_diameter_min" : 73.2073989347,
          "estimated_diameter_max" : 163.696720474
        },
        "miles" : {
          "estimated_diameter_min" : 0.0454889547,
          "estimated_diameter_max" : 0.1017163949
        },
        "feet" : {
          "estimated_diameter_min" : 240.181762721,
          "estimated_diameter_max" : 537.0627483999
        }
      },
      "is_potentially_hazardous_asteroid" : false,
      "close_approach_data" : [ {
        "close_approach_date" : "2003-01-22",
        "epoch_date_close_approach" : 1043222400000,
        "relative_velocity" : {
          "kilometers_per_second" : "11.6676895301",
          "kilometers_per_hour" : "42003.6823083186",
          "miles_per_hour" : "26099.454709855"
        },
        "miss_distance" : {
          "astronomical" : "0.1294508683",
          "lunar" : "50.356388092",
          "kilometers" : "19365576",
          "miles" : "12033210"
        },
        "orbiting_body" : "Earth"
      } ],
      "orbital_data" : {
        "orbit_id" : "19",
        "orbit_determination_date" : "2017-04-06 09:01:16",
        "orbit_uncertainty" : "0",
        "minimum_orbit_intersection" : ".0164537",
        "jupiter_tisserand_invariant" : "3.494",
        "epoch_osculation" : "2458000.5",
        "eccentricity" : ".6204830044491826",
        "semi_major_axis" : "2.07644378378466",
        "inclination" : "3.951617569174442",
        "ascending_node_longitude" : "309.558795961548",
        "orbital_period" : "1092.895640506176",
        "perihelion_distance" : ".7880457062521251",
        "perihelion_argument" : "132.6787230526726",
        "aphelion_distance" : "3.364841861317194",
        "perihelion_time" : "2458115.679939652560",
        "mean_anomaly" : "322.0597093280406",
        "mean_motion" : ".3294001610558767",
        "equinox" : "J2000"
      }
    } ]
  }
}